OBJECT_NAME,OBJECT_ID,EPOCH,MEAN_MOTION,ECCENTRICITY,INCLINATION,RA_OF_ASC_NODE,ARG_OF_PERICENTER,MEAN_ANOMALY,EPHEMERIS_TYPE,CLASSIFICATION_TYPE,NORAD_CAT_ID,ELEMENT_SET_NO,REV_AT_EPOCH,BSTAR,MEAN_MOTION_DOT,MEAN_MOTION_DDOT
SAUDISAT 1C (SO-50),2002-058C,2026-06-17T11:49:08.406624,14.83047547,.0075265,64.5510,128.0407,262.4185,96.8368,0,U,27607,999,26450,.11042E-3,.788E-5,0
SAUDISAT 2,2004-025F,2026-06-17T12:14:05.276256,14.56684071,.0023578,98.5508,168.5000,297.2213,62.6582,0,U,28371,999,16579,.52562E-4,.186E-5,0
SAUDISAT 3,2007-012B,2026-06-17T11:06:16.822080,14.71425774,.0013648,98.1456,118.8635,222.8868,137.1275,0,U,31118,999,2778,.40852E-4,.202E-5,0
PISAT,2016-059B,2026-06-17T11:37:48.628704,14.68983786,.0028408,97.8179,168.9246,201.7782,158.2218,0,U,41784,999,51978,.11936E-3,.656E-5,0
FLYING LAPTOP,2017-042G,2026-06-17T12:27:05.458752,15.01148007,.0019628,97.4690,324.0383,120.6225,239.6938,0,U,42831,999,48650,.24168E-3,.3051E-4,0
SALSAT,2020-068K,2026-06-17T11:20:29.672160,15.29803093,.0008034,97.8846,171.5545,306.9379,53.1123,0,U,46495,999,31540,.2181E-3,.6216E-4,0
